NORAD_CAT_ID,OBJECT_NAME,OBJECT_TYPE,EPOCH,MEAN_MOTION,ECCENTRICITY,INCLINATION,RA_OF_ASC_NODE,ARG_OF_PERICENTER,MEAN_ANOMALY,BSTAR,MEAN_MOTION_DOT,MEAN_MOTION_DDOT,TLE_LINE0,TLE_LINE1,TLE_LINE2,SEMIMAJOR_AXIS,PERIOD,APOGEE,PERIGEE,DECAYED
53622.0,STARLINK-4568,PAYLOAD,2024-01-01 13:59:27,15.08842434,0.0001223,53.2168,216.5649,108.542,251.5705,8.6754e-05,1.093e-05,0.0,0 STARLINK-4568,1 53622U 22104AL  24001.58295601  .00001093  00000-0  86754-4 0  9997,2 53622  53.2168 216.5649 0001223 108.5420 251.5705 15.08842434 75260,6917.873,95.437,540.584,538.892,0.0
53622.0,STARLINK-4568,PAYLOAD,2024-01-01 20:20:59,15.08851336,0.0001411,53.2151,215.3807,82.542,277.5732,0.00013512,1.864e-05,0.0,0 STARLINK-4568,1 53622U 22104AL  24001.84790966  .00001864  00000-0  13512-3 0  9997,2 53622  53.2151 215.3807 0001411  82.5420 277.5732 15.08851336 74623,6917.846,95.437,540.687,538.735,0.0
53622.0,STARLINK-4568,PAYLOAD,2024-01-01 23:31:44,15.08858664,0.0001367,53.2156,214.7837,95.0661,265.0487,0.00019524,2.822e-05,0.0,0 STARLINK-4568,1 53622U 22104AL  24001.98038191  .00002822  00000-0  19524-3 0  9991,2 53622  53.2156 214.7837 0001367  95.0661 265.0487 15.08858664 74642,6917.823,95.436,540.634,538.743,0.0
53622.0,STARLINK-4568,PAYLOAD,2024-01-02 13:50:14,15.08843707,0.0001616,53.2156,212.1092,83.852,276.2656,6.1001e-05,6.83e-06,0.0,0 STARLINK-4568,1 53622U 22104AL  24002.57655506  .00000683  00000-0  61001-4 0  9993,2 53622  53.2156 212.1092 0001616  83.8520 276.2656 15.08843707 75413,6917.869,95.437,540.852,538.616,0.0
53622.0,STARLINK-4568,PAYLOAD,2024-01-02 20:11:47,15.08839261,0.0001166,53.2156,210.9177,89.5159,270.5967,2.4331e-05,9.9e-07,0.0,0 STARLINK-4568,1 53622U 22104AL  24002.84151787  .00000099  00000-0  24331-4 0  9991,2 53622  53.2156 210.9177 0001166  89.5159 270.5967 15.08839261 74774,6917.883,95.438,540.554,538.941,0.0
53622.0,STARLINK-4568,PAYLOAD,2024-01-03 13:41:01,15.08847005,0.0001147,53.2157,207.6446,95.2492,264.8631,-8.4203e-05,-1.628e-05,0.0,0 STARLINK-4568,1 53622U 22104AL  24003.57015562 -.00001628  00000-0 -84203-4 0  9997,2 53622  53.2157 207.6446 0001147  95.2492 264.8631 15.08847005 75567,6917.859,95.437,540.517,538.93,0.0
53622.0,STARLINK-4568,PAYLOAD,2024-01-03 20:02:33,15.08847948,0.0001268,53.2158,206.4557,94.3176,265.7961,-5.1719e-05,-1.111e-05,0.0,0 STARLINK-4568,1 53622U 22104AL  24003.83511314 -.00001111  00000-0 -51719-4 0  9995,2 53622  53.2158 206.4557 0001268  94.3176 265.7961 15.08847948 75608,6917.856,95.437,540.598,538.844,0.0
53622.0,STARLINK-4568,PAYLOAD,2024-01-04 13:31:48,15.0883248,0.0001304,53.2163,203.1858,87.2099,272.9042,7.0365e-05,8.32e-06,0.0,0 STARLINK-4568,1 53622U 22104AL  24004.56376093  .00000832  00000-0  70365-4 0  9994,2 53622  53.2163 203.1858 0001304  87.2099 272.9042 15.08832480 75715,6917.903,95.438,540.67,538.866,0.0
53622.0,STARLINK-4568,PAYLOAD,2024-01-04 18:17:57,15.0884853,0.0001198,53.2156,202.2919,100.8002,259.3125,0.00018849,2.714e-05,0.0,0 STARLINK-4568,1 53622U 22104AL  24004.76246774  .00002714  00000-0  18849-3 0  9997,2 53622  53.2156 202.2919 0001198 100.8002 259.3125 15.08848530 75749,6917.854,95.437,540.548,538.891,0.0
53622.0,STARLINK-4568,PAYLOAD,2024-01-05 13:22:36,15.08836382,0.0001278,53.2162,198.7251,78.1512,281.9624,6.2474e-05,7.06e-06,0.0,0 STARLINK-4568,1 53622U 22104AL  24005.55736183  .00000706  00000-0  62474-4 0  9996,2 53622  53.2162 198.7251 0001278  78.1512 281.9624 15.08836382 75181,6917.891,95.438,540.641,538.872,0.0
53622.0,STARLINK-4568,PAYLOAD,2024-01-05 18:08:45,15.08836762,0.0001238,53.2161,197.8317,88.1783,271.9351,4.7392e-05,4.66e-06,0.0,0 STARLINK-4568,1 53622U 22104AL  24005.75608171  .00000466  00000-0  47392-4 0  9998,2 53622  53.2161 197.8317 0001238  88.1783 271.9351 15.08836762 75896,6917.89,95.438,540.612,538.899,0.0
53622.0,STARLINK-4568,PAYLOAD,2024-01-06 11:38:00,15.08819847,0.0001198,53.2163,194.5605,96.4205,263.6923,0.00034577,5.216e-05,0.0,0 STARLINK-4568,1 53622U 22104AL  24006.48472389  .00005216  00000-0  34577-3 0  9997,2 53622  53.2163 194.5605 0001198  96.4205 263.6923 15.08819847 76000,6917.942,95.439,540.636,538.978,0.0
53622.0,STARLINK-4568,PAYLOAD,2024-01-06 19:34:55,15.08842015,0.0001256,53.2161,193.0735,90.8073,269.3063,0.0001066,1.409e-05,0.0,0 STARLINK-4568,1 53622U 22104AL  24006.81591875  .00001409  00000-0  10660-3 0  9993,2 53622  53.2161 193.0735 0001256  90.8073 269.3063 15.08842015 75372,6917.874,95.437,540.608,538.87,0.0
53622.0,STARLINK-4568,PAYLOAD,2024-01-07 11:28:47,15.08836282,0.0001269,53.2157,190.1001,99.0525,261.0611,6.7184e-05,7.81e-06,0.0,0 STARLINK-4568,1 53622U 22104AL  24007.47832446  .00000781  00000-0  67184-4 0  9994,2 53622  53.2157 190.1001 0001269  99.0525 261.0611 15.08836282 75476,6917.892,95.438,540.635,538.879,0.0
53622.0,STARLINK-4568,PAYLOAD,2024-01-07 19:25:43,15.08835538,0.0001251,53.2159,188.6133,92.1643,267.9492,5.0592e-05,5.17e-06,0.0,0 STARLINK-4568,1 53622U 22104AL  24007.80952652  .00000517  00000-0  50592-4 0  9995,2 53622  53.2159 188.6133 0001251  92.1643 267.9492 15.08835538 76209,6917.894,95.438,540.624,538.894,0.0
53622.0,STARLINK-4568,PAYLOAD,2024-01-08 19:16:29,15.08850631,0.0001239,53.2159,184.1532,89.3121,270.8013,0.0001371,1.895e-05,0.0,0 STARLINK-4568,1 53622U 22104AL  24008.80311547  .00001895  00000-0  13710-3 0  9998,2 53622  53.2159 184.1532 0001239  89.3121 270.8013 15.08850631 75671,6917.848,95.437,540.57,538.856,0.0
53622.0,STARLINK-4568,PAYLOAD,2024-01-08 20:51:52,15.08852148,0.0001226,53.2158,183.8558,91.3876,268.7257,0.00015137,2.123e-05,0.0,0 STARLINK-4568,1 53622U 22104AL  24008.86935389  .00002123  00000-0  15137-3 0  9990,2 53622  53.2158 183.8558 0001226  91.3876 268.7257 15.08852148 76368,6917.843,95.437,540.556,538.86,0.0
53622.0,STARLINK-4568,PAYLOAD,2024-01-09 11:10:21,15.0883888,0.0001336,53.2159,181.1817,78.6951,281.4191,0.00014489,2.019e-05,0.0,0 STARLINK-4568,1 53622U 22104AL  24009.46552250  .00002019  00000-0  14489-3 0  9992,2 53622  53.2159 181.1817 0001336  78.6951 281.4191 15.08838880 75772,6917.884,95.438,540.673,538.825,0.0
53622.0,STARLINK-4568,PAYLOAD,2024-01-09 17:31:54,15.08835909,0.0001315,53.2159,179.9912,78.724,281.39,7.8514e-05,9.62e-06,0.0,0 STARLINK-4568,1 53622U 22104AL  24009.73048663  .00000962  00000-0  78514-4 0  9995,2 53622  53.2159 179.9912 0001315  78.7240 281.3900 15.08835909 76498,6917.893,95.438,540.668,538.848,0.0
53622.0,STARLINK-4568,PAYLOAD,2024-01-10 17:22:40,15.08850031,0.0001249,53.2159,175.5305,79.8073,280.306,9.5492e-06,-1.36e-06,0.0,0 STARLINK-4568,1 53622U 22104AL  24010.72407883 -.00000136  00000-0  95492-5 0  9998,2 53622  53.2159 175.5305 0001249  79.8073 280.3060 15.08850031 75968,6917.85,95.437,540.579,538.851,0.0
53622.0,STARLINK-4568,PAYLOAD,2024-01-11 10:51:55,15.08841972,0.0001347,53.217,172.2566,97.212,262.9026,5.1157e-05,5.26e-06,0.0,0 STARLINK-4568,1 53622U 22104AL  24011.45272040  .00000526  00000-0  51157-4 0  9995,2 53622  53.2170 172.2566 0001347  97.2120 262.9026 15.08841972 76075,6917.874,95.437,540.671,538.808,0.0
53622.0,STARLINK-4568,PAYLOAD,2024-01-11 14:02:41,15.08844359,0.0001345,53.2167,171.6624,99.1239,260.9906,8.0199e-05,9.89e-06,0.0,0 STARLINK-4568,1 53622U 22104AL  24011.58519785  .00000989  00000-0  80199-4 0  9990,2 53622  53.2167 171.6624 0001345  99.1239 260.9906 15.08844359 76773,6917.867,95.437,540.663,538.802,0.0
53622.0,STARLINK-4568,PAYLOAD,2024-01-11 20:24:13,15.08846638,0.0001368,53.217,170.473,97.7444,262.3703,8.9868e-05,1.143e-05,0.0,0 STARLINK-4568,1 53622U 22104AL  24011.85015553  .00001143  00000-0  89868-4 0  9999,2 53622  53.2170 170.4730 0001368  97.7444 262.3703 15.08846638 76817,6917.86,95.437,540.671,538.779,0.0
53622.0,STARLINK-4568,PAYLOAD,2024-01-12 13:53:28,15.08833588,0.000144,53.2174,167.198,105.7061,254.409,8.5762e-06,-1.51e-06,0.0,0 STARLINK-4568,1 53622U 22104AL  24012.57880783 -.00000151  00000-0  85762-5 0  9993,2 53622  53.2174 167.1980 0001440 105.7061 254.4090 15.08833588 76920,6917.9,95.438,540.761,538.769,0.0
53622.0,STARLINK-4568,PAYLOAD,2024-01-12 17:04:15,15.08833036,0.0001326,53.2167,166.6057,100.8113,259.3028,-5.9456e-05,-1.234e-05,0.0,0 STARLINK-4568,1 53622U 22104AL  24012.71129042 -.00001234  00000-0 -59456-4 0  9997,2 53622  53.2167 166.6057 0001326 100.8113 259.3028 15.08833036 76268,6917.902,95.438,540.684,538.849,0.0
53622.0,STARLINK-4568,PAYLOAD,2024-01-12 20:15:01,15.08832726,0.0001437,53.2169,166.0112,110.9112,249.2034,-7.4806e-05,-1.478e-05,0.0,0 STARLINK-4568,1 53622U 22104AL  24012.84377102 -.00001478  00000-0 -74806-4 0  9999,2 53622  53.2169 166.0112 0001437 110.9112 249.2034 15.08832726 76967,6917.903,95.438,540.762,538.774,0.0
53622.0,STARLINK-4568,PAYLOAD,2024-01-13 13:44:15,15.08854562,0.0001508,53.2173,162.7425,102.0698,258.0464,-0.0001345,-2.429e-05,0.0,0 STARLINK-4568,1 53622U 22104AL  24013.57240255 -.00002429  00000-0 -13450-3 0  9992,2 53622  53.2173 162.7425 0001508 102.0698 258.0464 15.08854562 77072,6917.836,95.437,540.744,538.658,0.0
53622.0,STARLINK-4568,PAYLOAD,2024-01-13 15:19:38,15.08843552,0.0001347,53.2172,162.4435,96.9063,263.2082,5.3127e-05,5.58e-06,0.0,0 STARLINK-4568,1 53622U 22104AL  24013.63864368  .00000558  00000-0  53127-4 0  9991,2 53622  53.2172 162.4435 0001347  96.9063 263.2082 15.08843552 76404,6917.87,95.437,540.666,538.803,0.0
53622.0,STARLINK-4568,PAYLOAD,2024-01-14 10:24:17,15.08836259,0.0001239,53.2171,158.8774,76.9273,283.1858,0.00011056,1.472e-05,0.0,0 STARLINK-4568,1 53622U 22104AL  24014.43353018  .00001472  00000-0  11056-3 0  9995,2 53622  53.2171 158.8774 0001239  76.9273 283.1858 15.08836259 76520,6917.892,95.438,540.614,538.9,0.0
53622.0,STARLINK-4568,PAYLOAD,2024-01-14 13:35:03,15.08837454,0.0001237,53.2171,158.2826,78.028,282.0851,0.0001187,1.602e-05,0.0,0 STARLINK-4568,1 53622U 22104AL  24014.56600990  .00001602  00000-0  11870-3 0  9992,2 53622  53.2171 158.2826 0001237  78.0280 282.0851 15.08837454 77228,6917.888,95.438,540.609,538.897,0.0
